CCSDS_OMM_VERS = 2.0
CREATION_DATE  = 
ORIGINATOR     = 

OBJECT_NAME    = STARLINK-36277
OBJECT_ID      = 2026-057M
CENTER_NAME    = EARTH
REF_FRAME      = TEME
TIME_SYSTEM    = UTC
MEAN_ELEMENT_THEORY = SGP/SGP4

EPOCH          = 2026-03-29T04:00:01.999584
MEAN_MOTION    = 16.02152894
ECCENTRICITY   = .0001343
INCLINATION    = 97.2791
RA_OF_ASC_NODE = 211.3269
ARG_OF_PERICENTER = 52.2794
MEAN_ANOMALY   = 318.7176

EPHEMERIS_TYPE = 0
CLASSIFICATION_TYPE = U
NORAD_CAT_ID   = 68305
ELEMENT_SET_NO = 999
REV_AT_EPOCH   = 250
BSTAR          = -.19983E-2
MEAN_MOTION_DOT = -.1140677E-1
MEAN_MOTION_DDOT = .42858E-3

CCSDS_OMM_VERS = 2.0
CREATION_DATE  = 
ORIGINATOR     = 

OBJECT_NAME    = STARLINK-36307
OBJECT_ID      = 2026-057N
CENTER_NAME    = EARTH
REF_FRAME      = TEME
TIME_SYSTEM    = UTC
MEAN_ELEMENT_THEORY = SGP/SGP4

EPOCH          = 2026-03-29T04:00:01.999584
MEAN_MOTION    = 16.02048355
ECCENTRICITY   = .0001324
INCLINATION    = 97.2794
RA_OF_ASC_NODE = 211.3258
ARG_OF_PERICENTER = 55.3057
MEAN_ANOMALY   = 312.4052

EPHEMERIS_TYPE = 0
CLASSIFICATION_TYPE = U
NORAD_CAT_ID   = 68306
ELEMENT_SET_NO = 999
REV_AT_EPOCH   = 244
BSTAR          = -.20293E-2
MEAN_MOTION_DOT = -.1151261E-1
MEAN_MOTION_DDOT = .43544E-3

CCSDS_OMM_VERS = 2.0
CREATION_DATE  = 
ORIGINATOR     = 

OBJECT_NAME    = STARLINK-36264
OBJECT_ID      = 2026-057P
CENTER_NAME    = EARTH
REF_FRAME      = TEME
TIME_SYSTEM    = UTC
MEAN_ELEMENT_THEORY = SGP/SGP4

EPOCH          = 2026-03-29T04:00:01.999584
MEAN_MOTION    = 16.02303898
ECCENTRICITY   = .0001386
INCLINATION    = 97.2792
RA_OF_ASC_NODE = 211.3286
ARG_OF_PERICENTER = 55.8358
MEAN_ANOMALY   = 318.6461

EPHEMERIS_TYPE = 0
CLASSIFICATION_TYPE = U
NORAD_CAT_ID   = 68307
ELEMENT_SET_NO = 999
REV_AT_EPOCH   = 250
BSTAR          = -.20199E-2
MEAN_MOTION_DOT = -.1162967E-1
MEAN_MOTION_DDOT = .44497E-3

CCSDS_OMM_VERS = 2.0
CREATION_DATE  = 
ORIGINATOR     = 

OBJECT_NAME    = STARLINK-37138
OBJECT_ID      = 2026-057Q
CENTER_NAME    = EARTH
REF_FRAME      = TEME
TIME_SYSTEM    = UTC
MEAN_ELEMENT_THEORY = SGP/SGP4

EPOCH          = 2026-03-29T04:00:01.999584
MEAN_MOTION    = 16.02395503
ECCENTRICITY   = .0001345
INCLINATION    = 97.2786
RA_OF_ASC_NODE = 211.3288
ARG_OF_PERICENTER = 59.4577
MEAN_ANOMALY   = 317.0279

EPHEMERIS_TYPE = 0
CLASSIFICATION_TYPE = U
NORAD_CAT_ID   = 68308
ELEMENT_SET_NO = 999
REV_AT_EPOCH   = 217
BSTAR          = -.20018E-2
MEAN_MOTION_DOT = -.1158737E-1
MEAN_MOTION_DDOT = .44245E-3

CCSDS_OMM_VERS = 2.0
CREATION_DATE  = 
ORIGINATOR     = 

OBJECT_NAME    = STARLINK-37149
OBJECT_ID      = 2026-057R
CENTER_NAME    = EARTH
REF_FRAME      = TEME
TIME_SYSTEM    = UTC
MEAN_ELEMENT_THEORY = SGP/SGP4

EPOCH          = 2026-03-29T04:00:01.999584
MEAN_MOTION    = 16.02511355
ECCENTRICITY   = .0001367
INCLINATION    = 97.2784
RA_OF_ASC_NODE = 211.3299
ARG_OF_PERICENTER = 54.9348
MEAN_ANOMALY   = 324.1474

EPHEMERIS_TYPE = 0
CLASSIFICATION_TYPE = U
NORAD_CAT_ID   = 68309
ELEMENT_SET_NO = 999
REV_AT_EPOCH   = 228
BSTAR          = -.19933E-2
MEAN_MOTION_DOT = -.1161623E-1
MEAN_MOTION_DDOT = .44509E-3

CCSDS_OMM_VERS = 2.0
CREATION_DATE  = 
ORIGINATOR     = 

OBJECT_NAME    = STARLINK-37148
OBJECT_ID      = 2026-057S
CENTER_NAME    = EARTH
REF_FRAME      = TEME
TIME_SYSTEM    = UTC
MEAN_ELEMENT_THEORY = SGP/SGP4

EPOCH          = 2026-03-29T04:00:01.999584
MEAN_MOTION    = 16.02745728
ECCENTRICITY   = .0001432
INCLINATION    = 97.2782
RA_OF_ASC_NODE = 211.3323
ARG_OF_PERICENTER = 58.0193
MEAN_ANOMALY   = 326.5034

EPHEMERIS_TYPE = 0
CLASSIFICATION_TYPE = U
NORAD_CAT_ID   = 68310
ELEMENT_SET_NO = 999
REV_AT_EPOCH   = 239
BSTAR          = -.19644E-2
MEAN_MOTION_DOT = -.1160607E-1
MEAN_MOTION_DDOT = .44558E-3

CCSDS_OMM_VERS = 2.0
CREATION_DATE  = 
ORIGINATOR     = 

OBJECT_NAME    = STARLINK-37140
OBJECT_ID      = 2026-057T
CENTER_NAME    = EARTH
REF_FRAME      = TEME
TIME_SYSTEM    = UTC
MEAN_ELEMENT_THEORY = SGP/SGP4

EPOCH          = 2026-03-29T04:00:01.999584
MEAN_MOTION    = 16.02632990
ECCENTRICITY   = .0001317
INCLINATION    = 97.2784
RA_OF_ASC_NODE = 211.3314
ARG_OF_PERICENTER = 53.9410
MEAN_ANOMALY   = 328.0271

EPHEMERIS_TYPE = 0
CLASSIFICATION_TYPE = U
NORAD_CAT_ID   = 68311
ELEMENT_SET_NO = 999
REV_AT_EPOCH   = 255
BSTAR          = -.19774E-2
MEAN_MOTION_DOT = -.1160536E-1
MEAN_MOTION_DDOT = .44495E-3

CCSDS_OMM_VERS = 2.0
CREATION_DATE  = 
ORIGINATOR     = 

OBJECT_NAME    = STARLINK-36854
OBJECT_ID      = 2026-057U
CENTER_NAME    = EARTH
REF_FRAME      = TEME
TIME_SYSTEM    = UTC
MEAN_ELEMENT_THEORY = SGP/SGP4

EPOCH          = 2026-03-29T04:00:01.999584
MEAN_MOTION    = 16.02869121
ECCENTRICITY   = .0001428
INCLINATION    = 97.2782
RA_OF_ASC_NODE = 211.3337
ARG_OF_PERICENTER = 52.3621
MEAN_ANOMALY   = 334.5975

EPHEMERIS_TYPE = 0
CLASSIFICATION_TYPE = U
NORAD_CAT_ID   = 68312
ELEMENT_SET_NO = 999
REV_AT_EPOCH   = 234
BSTAR          = -.19341E-2
MEAN_MOTION_DOT = -.1151049E-1
MEAN_MOTION_DDOT = .43945E-3

CCSDS_OMM_VERS = 2.0
CREATION_DATE  = 
ORIGINATOR     = 

OBJECT_NAME    = STARLINK-36815
OBJECT_ID      = 2026-057V
CENTER_NAME    = EARTH
REF_FRAME      = TEME
TIME_SYSTEM    = UTC
MEAN_ELEMENT_THEORY = SGP/SGP4

EPOCH          = 2026-03-29T04:00:01.999584
MEAN_MOTION    = 16.02983193
ECCENTRICITY   = .0001294
INCLINATION    = 97.2784
RA_OF_ASC_NODE = 211.3352
ARG_OF_PERICENTER = 52.8223
MEAN_ANOMALY   = 337.1565

EPHEMERIS_TYPE = 0
CLASSIFICATION_TYPE = U
NORAD_CAT_ID   = 68313
ELEMENT_SET_NO = 999
REV_AT_EPOCH   = 234
BSTAR          = -.19318E-2
MEAN_MOTION_DOT = -.115733E-1
MEAN_MOTION_DDOT = .44449E-3

CCSDS_OMM_VERS = 2.0
CREATION_DATE  = 
ORIGINATOR     = 

OBJECT_NAME    = STARLINK-37155
OBJECT_ID      = 2026-057W
CENTER_NAME    = EARTH
REF_FRAME      = TEME
TIME_SYSTEM    = UTC
MEAN_ELEMENT_THEORY = SGP/SGP4

EPOCH          = 2026-03-29T04:00:01.999584
MEAN_MOTION    = 16.03257647
ECCENTRICITY   = .0001428
INCLINATION    = 97.2779
RA_OF_ASC_NODE = 211.3377
ARG_OF_PERICENTER = 55.6516
MEAN_ANOMALY   = 340.5778

EPHEMERIS_TYPE = 0
CLASSIFICATION_TYPE = U
NORAD_CAT_ID   = 68314
ELEMENT_SET_NO = 999
REV_AT_EPOCH   = 239
BSTAR          = -.19083E-2
MEAN_MOTION_DOT = -.1161812E-1
MEAN_MOTION_DDOT = .44911E-3

CCSDS_OMM_VERS = 2.0
CREATION_DATE  = 
ORIGINATOR     = 

OBJECT_NAME    = STARLINK-37150
OBJECT_ID      = 2026-057X
CENTER_NAME    = EARTH
REF_FRAME      = TEME
TIME_SYSTEM    = UTC
MEAN_ELEMENT_THEORY = SGP/SGP4

EPOCH          = 2026-03-28T20:00:01.999872
MEAN_MOTION    = 16.03920378
ECCENTRICITY   = .0001205
INCLINATION    = 97.2786
RA_OF_ASC_NODE = 210.9705
ARG_OF_PERICENTER = 87.5524
MEAN_ANOMALY   = 182.8305

EPHEMERIS_TYPE = 0
CLASSIFICATION_TYPE = U
NORAD_CAT_ID   = 68315
ELEMENT_SET_NO = 999
REV_AT_EPOCH   = 233
BSTAR          = -.18333935E-2
MEAN_MOTION_DOT = -.1160866E-1
MEAN_MOTION_DDOT = .4519457E-3

CCSDS_OMM_VERS = 2.0
CREATION_DATE  = 
ORIGINATOR     = 

OBJECT_NAME    = STARLINK-37154
OBJECT_ID      = 2026-057Y
CENTER_NAME    = EARTH
REF_FRAME      = TEME
TIME_SYSTEM    = UTC
MEAN_ELEMENT_THEORY = SGP/SGP4

EPOCH          = 2026-03-28T20:00:01.999872
MEAN_MOTION    = 16.04322357
ECCENTRICITY   = .0001048
INCLINATION    = 97.2780
RA_OF_ASC_NODE = 210.9743
ARG_OF_PERICENTER = 74.8273
MEAN_ANOMALY   = 204.3137

EPHEMERIS_TYPE = 0
CLASSIFICATION_TYPE = U
NORAD_CAT_ID   = 68316
ELEMENT_SET_NO = 999
REV_AT_EPOCH   = 223
BSTAR          = -.17737026E-2
MEAN_MOTION_DOT = -.1150392E-1
MEAN_MOTION_DDOT = .44656503E-3

